ONEWEB-0410             
1 51622U 22012A   26162.59800133  .00000042  00000+0  75420-4 0  9996
2 51622  87.9146   6.9687 0003144  79.0970 281.0516 13.17648245212967
ONEWEB-0411             
1 51623U 22012B   26162.59160327 -.00000408  00000+0 -12049-2 0  9995
2 51623  87.8842  37.3809 0001571  99.4599 260.6706 13.10370016208554
ONEWEB-0415             
1 51624U 22012C   26162.58829048 -.00000221  00000+0 -67024-3 0  9994
2 51624  87.8836  37.3807 0001767  90.3839 269.7490 13.10369772208557
ONEWEB-0416             
1 51625U 22012D   26162.59990964 -.00000642  00000+0 -18762-2 0  9993
2 51625  87.8836  37.3969 0001990  94.7719 265.3635 13.10372045208594
ONEWEB-0422             
1 51626U 22012E   26162.60813158  .00000033  00000+0  51552-4 0  9993
2 51626  87.9142   6.9680 0001256  78.5445 281.5828 13.17648577213075
ONEWEB-0423             
1 51627U 22012F   26162.60138629  .00000051  00000+0  99192-4 0  9999
2 51627  87.9139   6.9751 0001927  84.2012 275.9339 13.17649839212963
ONEWEB-0425             
1 51628U 22012G   26162.60987325 -.00000503  00000+0 -14771-2 0  9997
2 51628  87.8841  37.3783 0002105  78.1158 282.0205 13.10375107208590
ONEWEB-0428             
1 51629U 22012H   26162.58994565 -.00000333  00000+0 -98921-3 0  9990
2 51629  87.8833  37.3892 0001773  80.7657 279.3671 13.10370369208553
ONEWEB-0431             
1 51630U 22012J   26162.55994718  .00000651  00000+0  18293-2 0  9993
2 51630  87.8839  37.3875 0001433  98.9832 261.1458 13.10374339208600
ONEWEB-0434             
1 51631U 22012K   26162.61332760 -.00000393  00000+0 -11613-2 0  9998
2 51631  87.8844  37.4020 0002369  73.9489 286.1899 13.10374798208593
ONEWEB-0435             
1 51632U 22012L   26162.62147932  .00000043  00000+0  88242-4 0  9999
2 51632  87.8837  37.3870 0001434  79.9405 280.1885 13.10373862208583
ONEWEB-0436             
1 51633U 22012M   26162.59293728 -.00000018  00000+0 -80089-4 0  9996
2 51633  87.9145   6.9583 0001642  86.8719 273.2600 13.17648398212945
ONEWEB-0438             
1 51634U 22012N   26162.60488480 -.00000625  00000+0 -18276-2 0  9991
2 51634  87.8838  37.3929 0001991  80.4077 279.7275 13.10373454208619
ONEWEB-0439             
1 51635U 22012P   26162.60821841  .00000588  00000+0  16485-2 0  9990
2 51635  87.8835  37.3785 0002406   1.8543 358.2593 13.10369108208598
ONEWEB-0442             
1 51636U 22012Q   26162.58534970  .00000068  00000+0  14151-3 0  9994
2 51636  87.9138   6.9928 0002415  84.6670 275.4737 13.17649162212938
ONEWEB-0443             
1 51637U 22012R   26162.60474864  .00000075  00000+0  15917-3 0  9992
2 51637  87.9134   6.9902 0001862  76.2619 283.8719 13.17649145212981
ONEWEB-0444             
1 51638U 22012S   26162.59824460 -.00000633  00000+0 -18503-2 0  9997
2 51638  87.8835  37.3802 0001829  76.7167 283.4164 13.10371993208602
ONEWEB-0445             
1 51639U 22012T   26162.61983664 -.00000109  00000+0 -34722-3 0  9993
2 51639  87.8848  37.3640 0001817  88.7673 271.3663 13.10375710208611
ONEWEB-0446             
1 51640U 22012U   26162.59658108 -.00000537  00000+0 -15749-2 0  9996
2 51640  87.8835  37.3975 0001844  86.7145 273.4193 13.10371520208595
ONEWEB-0448             
1 51641U 22012V   26162.60156828 -.00000669  00000+0 -19526-2 0  9994
2 51641  87.8834  37.3932 0001791  79.1871 280.9457 13.10372991208567
ONEWEB-0449             
1 51642U 22012W   26162.60654577 -.00000569  00000+0 -16658-2 0  9991
2 51642  87.8840  37.3776 0002197  76.2722 283.8650 13.10373951208570
ONEWEB-0451             
1 51643U 22012X   26162.58957422  .00000079  00000+0  17045-3 0  9990
2 51643  87.9147   6.9562 0002043  82.9359 277.2005 13.17649303212926
ONEWEB-0452             
1 51644U 22012Y   26162.58787510  .00000051  00000+0  97663-4 0  9995
2 51644  87.9136   6.9939 0001962  77.7282 282.4069 13.17648753212936
ONEWEB-0456             
1 51646U 22012AA  26162.61649534 -.00000218  00000+0 -66011-3 0  9993
2 51646  87.8848  37.3626 0001661  79.6449 280.4865 13.10374191208617
ONEWEB-0457             
1 51647U 22012AB  26162.59312296 -.00000462  00000+0 -13609-2 0  9998
2 51647  87.8834  37.3859 0002114  89.8043 270.3327 13.10369709208618
ONEWEB-0458             
1 51648U 22012AC  26162.61485050 -.00000345  00000+0 -10260-2 0  9991
2 51648  87.8848  37.3690 0001890  75.9347 284.1990 13.10374544208577
ONEWEB-0461             
1 51649U 22012AD  26162.60981030  .00000053  00000+0  10441-3 0  9996
2 51649  87.9144   6.9664 0001922  89.5395 270.5957 13.17647612213159
ONEWEB-0463             
1 51650U 22012AE  26162.59125851  .00000064  00000+0  13142-3 0  9990
2 51650  87.9134   6.9929 0001948  90.8071 269.3284 13.17648660212936
ONEWEB-0464             
1 51651U 22012AF  26162.61152763 -.00000489  00000+0 -14381-2 0  9994
2 51651  87.8838  37.3919 0001644  73.9777 286.1531 13.10374492208593
ONEWEB-0468             
1 51652U 22012AG  26162.61817333 -.00000148  00000+0 -45951-3 0  9996
2 51652  87.8839  37.3846 0001586  72.7183 287.4118 13.10375720208575
