OBJECT_NAME,OBJECT_ID,EPOCH,MEAN_MOTION,ECCENTRICITY,INCLINATION,RA_OF_ASC_NODE,ARG_OF_PERICENTER,MEAN_ANOMALY,EPHEMERIS_TYPE,CLASSIFICATION_TYPE,NORAD_CAT_ID,ELEMENT_SET_NO,REV_AT_EPOCH,BSTAR,MEAN_MOTION_DOT,MEAN_MOTION_DDOT
ONEWEB-0410,2022-012A,2026-06-11T14:21:07.314912,13.17648245,.0003144,87.9146,6.9687,79.0970,281.0516,0,U,51622,999,21296,.75420048E-4,.42E-6,0
ONEWEB-0411,2022-012B,2026-06-11T14:11:54.522528,13.10370016,.0001571,87.8842,37.3809,99.4599,260.6706,0,U,51623,999,20855,-.12049421E-2,-.408E-5,0
ONEWEB-0415,2022-012C,2026-06-11T14:07:08.297472,13.10369772,.00017675,87.8836,37.3807,90.3839,269.7490,0,U,51624,999,20855,-.67024448E-3,-.221E-5,0
ONEWEB-0416,2022-012D,2026-06-11T14:23:52.192896,13.10372045,.00019904,87.8836,37.3969,94.7719,265.3635,0,U,51625,999,20859,-.1876176E-2,-.642E-5,0
ONEWEB-0422,2022-012E,2026-06-11T14:35:42.568512,13.17648577,.00012567,87.9142,6.9680,78.5445,281.5828,0,U,51626,999,21307,.51552376E-4,.33E-6,0
ONEWEB-0423,2022-012F,2026-06-11T14:25:59.775456,13.17649839,.00019272,87.9139,6.9751,84.2012,275.9339,0,U,51627,999,21296,.99192155E-4,.51E-6,0
ONEWEB-0425,2022-012G,2026-06-11T14:38:13.048800,13.10375107,.00021052,87.8841,37.3783,78.1158,282.0205,0,U,51628,999,20859,-.14770841E-2,-.503E-5,0
ONEWEB-0428,2022-012H,2026-06-11T14:09:31.304160,13.10370369,.00017731,87.8833,37.3892,80.7657,279.3671,0,U,51629,999,20855,-.98920658E-3,-.333E-5,0
ONEWEB-0431,2022-012J,2026-06-11T13:26:19.436352,13.10374339,.00014339,87.8839,37.3875,98.9832,261.1458,0,U,51630,999,20860,.18293412E-2,.651E-5,0
ONEWEB-0434,2022-012K,2026-06-11T14:43:11.504640,13.10374798,.00023699,87.8844,37.4020,73.9489,286.1899,0,U,51631,999,20859,-.11613353E-2,-.393E-5,0
ONEWEB-0435,2022-012L,2026-06-11T14:54:55.813248,13.10373862,.00014346,87.8837,37.3870,79.9405,280.1885,0,U,51632,999,20858,.88242147E-4,.43E-6,0
ONEWEB-0436,2022-012M,2026-06-11T14:13:49.780992,13.17648398,.00016422,87.9145,6.9583,86.8719,273.2600,0,U,51633,999,21294,-.80089211E-4,-.18E-6,0
ONEWEB-0438,2022-012N,2026-06-11T14:31:02.046720,13.10373454,.00019915,87.8838,37.3929,80.4077,279.7275,0,U,51634,999,20861,-.18276069E-2,-.625E-5,0
ONEWEB-0439,2022-012P,2026-06-11T14:35:50.070624,13.10369108,.00024065,87.8835,37.3785,1.8543,358.2593,0,U,51635,999,20859,.1648491E-2,.588E-5,0
ONEWEB-0442,2022-012Q,2026-06-11T14:02:54.214080,13.17649162,.00024152,87.9138,6.9928,84.6670,275.4737,0,U,51636,999,21293,.1415113E-3,.68E-6,0
ONEWEB-0443,2022-012R,2026-06-11T14:30:50.282496,13.17649145,.00018624,87.9134,6.9902,76.2619,283.8719,0,U,51637,999,21298,.15916958E-3,.75E-6,0
ONEWEB-0444,2022-012S,2026-06-11T14:21:28.333440,13.10371993,.00018297,87.8835,37.3802,76.7167,283.4164,0,U,51638,999,20860,-.18502518E-2,-.633E-5,0
ONEWEB-0445,2022-012T,2026-06-11T14:52:33.885696,13.10375710,.00018171,87.8848,37.3640,88.7673,271.3663,0,U,51639,999,20861,-.34721911E-3,-.109E-5,0
ONEWEB-0446,2022-012U,2026-06-11T14:19:04.605312,13.10371520,.00018444,87.8835,37.3975,86.7145,273.4193,0,U,51640,999,20859,-.15749386E-2,-.537E-5,0
ONEWEB-0448,2022-012V,2026-06-11T14:26:15.499392,13.10372991,.00017912,87.8834,37.3932,79.1871,280.9457,0,U,51641,999,20856,-.19526474E-2,-.669E-5,0
ONEWEB-0449,2022-012W,2026-06-11T14:33:25.554528,13.10373951,.0002197,87.8840,37.3776,76.2722,283.8650,0,U,51642,999,20857,-.16658398E-2,-.569E-5,0
ONEWEB-0451,2022-012X,2026-06-11T14:08:59.212608,13.17649303,.00020439,87.9147,6.9562,82.9359,277.2005,0,U,51643,999,21292,.17045367E-3,.79E-6,0
ONEWEB-0452,2022-012Y,2026-06-11T14:06:32.408640,13.17648753,.00019628,87.9136,6.9939,77.7282,282.4069,0,U,51644,999,21293,.97663196E-4,.51E-6,0
ONEWEB-0456,2022-012AA,2026-06-11T14:47:45.197376,13.10374191,.00016612,87.8848,37.3626,79.6449,280.4865,0,U,51646,999,20861,-.66011099E-3,-.218E-5,0
ONEWEB-0457,2022-012AB,2026-06-11T14:14:05.823744,13.10369709,.00021145,87.8834,37.3859,89.8043,270.3327,0,U,51647,999,20861,-.13609128E-2,-.462E-5,0
ONEWEB-0458,2022-012AC,2026-06-11T14:45:23.083200,13.10374544,.00018907,87.8848,37.3690,75.9347,284.1990,0,U,51648,999,20857,-.1025956E-2,-.345E-5,0
ONEWEB-0461,2022-012AD,2026-06-11T14:38:07.609920,13.17647612,.00019228,87.9144,6.9664,89.5395,270.5957,0,U,51649,999,21315,.10440937E-3,.53E-6,0
ONEWEB-0463,2022-012AE,2026-06-11T14:11:24.735264,13.17648660,.00019483,87.9134,6.9929,90.8071,269.3284,0,U,51650,999,21293,.13142108E-3,.64E-6,0
ONEWEB-0464,2022-012AF,2026-06-11T14:40:35.987232,13.10374492,.00016443,87.8838,37.3919,73.9777,286.1531,0,U,51651,999,20859,-.1438053E-2,-.489E-5,0
ONEWEB-0468,2022-012AG,2026-06-11T14:50:10.175712,13.10375720,.00015863,87.8839,37.3846,72.7183,287.4118,0,U,51652,999,20857,-.45951057E-3,-.148E-5,0
